[{"OBJECT_NAME":"SHIYAN-24C 02","OBJECT_ID":"2023-206B","EPOCH":"2026-03-09T21:24:07.715808","MEAN_MOTION":14.97980163,"ECCENTRICITY":0.0003465,"INCLINATION":97.3985,"RA_OF_ASC_NODE":41.8071,"ARG_OF_PERICENTER":80.6641,"MEAN_ANOMALY":279.4974,"EPHEMERIS_TYPE":0,"CLASSIFICATION_TYPE":"U","NORAD_CAT_ID":58651,"ELEMENT_SET_NO":999,"REV_AT_EPOCH":12044,"BSTAR":0.00023935,"MEAN_MOTION_DOT":2.77e-5,"MEAN_MOTION_DDOT":0},{"OBJECT_NAME":"STARLINK-35882","OBJECT_ID":"2025-298P","EPOCH":"2026-03-09T23:03:56.894688","MEAN_MOTION":14.98333879,"ECCENTRICITY":0.00031237,"INCLINATION":70.0009,"RA_OF_ASC_NODE":13.9447,"ARG_OF_PERICENTER":267.6345,"MEAN_ANOMALY":92.4456,"EPHEMERIS_TYPE":0,"CLASSIFICATION_TYPE":"U","NORAD_CAT_ID":67088,"ELEMENT_SET_NO":999,"REV_AT_EPOCH":1325,"BSTAR":0.00038624449,"MEAN_MOTION_DOT":4.519e-5,"MEAN_MOTION_DDOT":0}]
